{"spkid": "20359170", "covariance": {"epoch": "2455228.5", "elements": [{"sigma": 1.07865198649337e-07, "name": "e", "units": null, "value": ".4654111268233505", "title": "eccentricity", "label": "e"}, {"units": "au", "value": ".8258816897561946", "title": "perihelion distance", "sigma": 1.82499380281149e-07, "name": "q", "label": "q"}, {"name": "tp", "sigma": 9.61985340973515e-05, "units": "TDB", "title": "time of perihelion passage", "value": "2455500.007579058688", "label": "tp"}, {"value": "349.8353103657016", "title": "longitude of the ascending node", "units": "deg", "name": "om", "sigma": 9.40823856787628e-05, "label": "node"}, {"title": "argument of perihelion", "value": "53.08618515630963", "units": "deg", "name": "w", "sigma": 0.000107091935276122, "label": "peri"}, {"label": "i", "units": "deg", "value": "11.91685315432513", "title": "inclination", "sigma": 3.11629573355374e-05, "name": "i"}], "data": [["1.163490107966095E-14", "-1.919890974195758E-14", "1.801794962936366E-13", "-6.248444455670064E-13", "5.858856306156585E-13", "1.615722763041402E-13"], ["-1.919890974195758E-14", "3.330602380300352E-14", "3.229814252017849E-12", "8.371617521881287E-13", "7.812529936499153E-13", "-2.149488608229821E-13"], ["1.801794962936366E-13", "3.229814252017849E-12", "9.254157962479291E-9", "-5.44305643889519E-10", "5.092481129733819E-9", "7.772118583306588E-11"], ["-6.248444455670064E-13", "8.371617521881287E-13", "-5.44305643889519E-10", "8.851495295007465E-9", "-8.932661078547487E-9", "-2.483144030276373E-9"], ["5.858856306156585E-13", "7.812529936499153E-13", "5.092481129733819E-9", "-8.932661078547487E-9", "1.146868260118503E-8", "2.433383000000174E-9"], ["1.615722763041402E-13", "-2.149488608229821E-13", "7.772118583306588E-11", "-2.483144030276373E-9", "2.433383000000174E-9", "9.711299098965225E-10"]], "labels": ["e", "q", "tp", "node", "peri", "i"]}, "elements": [{"label": "e", "units": null, "value": ".4652837569397052", "title": "eccentricity", "sigma": "1.0817E-7", "name": "e"}, {"units": "au", "value": "1.544816389661898", "title": "semi-major axis", "sigma": "7.2827E-8", "name": "a", "label": "a"}, {"title": "perihelion distance", "value": ".8260384160979787", "units": "au", "sigma": "1.8271E-7", "name": "q", "label": "q"}, {"label": "i", "sigma": "3.1153E-5", "name": "i", "units": "deg", "title": "inclination; angle with respect to x-y ecliptic plane", "value": "11.90412751410601"}, {"sigma": "9.4173E-5", "name": "om", "units": "deg", "title": "longitude of the ascending node", "value": "349.6895855587571", "label": "node"}, {"name": "w", "sigma": ".00010745", "units": "deg", "value": "53.28422776451865", "title": "argument of perihelion", "label": "peri"}, {"label": "M", "name": "ma", "sigma": ".00026366", "units": "deg", "title": "mean anomaly", "value": "45.70218463730713"}, {"label": "tp", "units": "TDB", "title": "time of perihelion passage", "value": "2461111.467577717883", "name": "tp", "sigma": ".00050738"}, {"label": "period", "sigma": "4.9593E-5", "name": "per", "units": "d", "value": "701.3159715651308", "title": "sidereal orbital period"}, {"label": "n", "name": "n", "sigma": "3.6299E-8", "value": ".5133206922360344", "title": "mean motion", "units": "deg/d"}, {"label": "Q", "sigma": "1.0671E-7", "name": "ad", "units": "au", "title": "aphelion distance", "value": "2.263594363225818"}], "epoch": "2461200.5"}